<?xml version="1.0" encoding="UTF-8"?>
<kml xmlns="http://www.opengis.net/kml/2.2">
  <Document>
    <name>nps_points_cuva</name>
    <description/>
    <Style id="icon-1899-0288D1-nodesc-normal">
      <IconStyle>
        <color>ffd18802</color>
        <scale>1</scale>
        <Icon>
          <href>https://www.gstatic.com/mapspro/images/stock/503-wht-blank_maps.png</href>
        </Icon>
        <hotSpot x="32" xunits="pixels" y="64" yunits="insetPixels"/>
      </IconStyle>
      <LabelStyle>
        <scale>0</scale>
      </LabelStyle>
      <BalloonStyle>
        <text><![CDATA[<h3>$[name]</h3>]]></text>
      </BalloonStyle>
    </Style>
    <Style id="icon-1899-0288D1-nodesc-highlight">
      <IconStyle>
        <color>ffd18802</color>
        <scale>1</scale>
        <Icon>
          <href>https://www.gstatic.com/mapspro/images/stock/503-wht-blank_maps.png</href>
        </Icon>
        <hotSpot x="32" xunits="pixels" y="64" yunits="insetPixels"/>
      </IconStyle>
      <LabelStyle>
        <scale>1</scale>
      </LabelStyle>
      <BalloonStyle>
        <text><![CDATA[<h3>$[name]</h3>]]></text>
      </BalloonStyle>
    </Style>
    <StyleMap id="icon-1899-0288D1-nodesc">
      <Pair>
        <key>normal</key>
        <styleUrl>#icon-1899-0288D1-nodesc-normal</styleUrl>
      </Pair>
      <Pair>
        <key>highlight</key>
        <styleUrl>#icon-1899-0288D1-nodesc-highlight</styleUrl>
      </Pair>
    </StyleMap>
    <Folder>
      <name>cuva</name>
      <Placemark>
        <name>Station Road Bridge Trailhead Information</name>
        <styleUrl>#icon-1899-0288D1-nodesc</styleUrl>
        <Point>
          <coordinates>
            -81.5877285,41.3187028,0
          </coordinates>
        </Point>
      </Placemark>
      <Placemark>
        <name>Ira Trailhead</name>
        <styleUrl>#icon-1899-0288D1-nodesc</styleUrl>
        <Point>
          <coordinates>
            -81.5825513,41.1841211,0
          </coordinates>
        </Point>
      </Placemark>
      <Placemark>
        <name>Ledges Trailhead</name>
        <styleUrl>#icon-1899-0288D1-nodesc</styleUrl>
        <Point>
          <coordinates>
            -81.5101583,41.2236632,0
          </coordinates>
        </Point>
      </Placemark>
      <Placemark>
        <name>Pine Grove Trail Head</name>
        <styleUrl>#icon-1899-0288D1-nodesc</styleUrl>
        <Point>
          <coordinates>
            -81.5136993,41.2260236,0
          </coordinates>
        </Point>
      </Placemark>
      <Placemark>
        <name>Brandywine Falls Trailhead</name>
        <styleUrl>#icon-1899-0288D1-nodesc</styleUrl>
        <Point>
          <coordinates>
            -81.5401275,41.2767629,0
          </coordinates>
        </Point>
      </Placemark>
      <Placemark>
        <name>Bridal Veil Falls</name>
        <styleUrl>#icon-1899-0288D1-nodesc</styleUrl>
        <Point>
          <coordinates>
            -81.5495738,41.3730918,0
          </coordinates>
        </Point>
      </Placemark>
    </Folder>
    <Folder>
      <name>mora</name>
      <Placemark>
        <name>Trail of the Shadows</name>
        <styleUrl>#icon-1899-0288D1-nodesc</styleUrl>
        <Point>
          <coordinates>
            -121.8148766,46.7515061,0
          </coordinates>
        </Point>
      </Placemark>
      <Placemark>
        <name>Rampart Ridge Trail</name>
        <styleUrl>#icon-1899-0288D1-nodesc</styleUrl>
        <Point>
          <coordinates>
            -121.8185543,46.7597031,0
          </coordinates>
        </Point>
      </Placemark>
      <Placemark>
        <name>Narada Falls Trail</name>
        <styleUrl>#icon-1899-0288D1-nodesc</styleUrl>
        <Point>
          <coordinates>
            -121.7424298,46.7765198,0
          </coordinates>
        </Point>
      </Placemark>
      <Placemark>
        <name>Van Trump Park Trail</name>
        <styleUrl>#icon-1899-0288D1-nodesc</styleUrl>
        <Point>
          <coordinates>
            -121.7766313,46.7994624,0
          </coordinates>
        </Point>
      </Placemark>
      <Placemark>
        <name><![CDATA[Comet Falls & Van Trump Park Trailhead]]></name>
        <styleUrl>#icon-1899-0288D1-nodesc</styleUrl>
        <Point>
          <coordinates>
            -121.783507,46.7787919,0
          </coordinates>
        </Point>
      </Placemark>
      <Placemark>
        <name>Deadhorse Creek Trail</name>
        <styleUrl>#icon-1899-0288D1-nodesc</styleUrl>
        <Point>
          <coordinates>
            -121.7393051,46.7922981,0
          </coordinates>
        </Point>
      </Placemark>
      <Placemark>
        <name>Skyline Trail</name>
        <styleUrl>#icon-1899-0288D1-nodesc</styleUrl>
        <Point>
          <coordinates>
            -121.7259989,46.7934476,0
          </coordinates>
        </Point>
      </Placemark>
      <Placemark>
        <name>Emmons Moraine Trailhead</name>
        <styleUrl>#icon-1899-0288D1-nodesc</styleUrl>
        <Point>
          <coordinates>
            -121.66461,46.8999438,0
          </coordinates>
        </Point>
      </Placemark>
      <Placemark>
        <name>Nature Trail</name>
        <styleUrl>#icon-1899-0288D1-nodesc</styleUrl>
        <Point>
          <coordinates>
            -121.648046,46.9156649,0
          </coordinates>
        </Point>
      </Placemark>
      <Placemark>
        <name>Burroughs Mountain Trail</name>
        <styleUrl>#icon-1899-0288D1-nodesc</styleUrl>
        <Point>
          <coordinates>
            -121.6418069,46.9139198,0
          </coordinates>
        </Point>
      </Placemark>
      <Placemark>
        <name>Mount Fremont Lookout Trail</name>
        <styleUrl>#icon-1899-0288D1-nodesc</styleUrl>
        <Point>
          <coordinates>
            -121.642285,46.9148391,0
          </coordinates>
        </Point>
      </Placemark>
    </Folder>
    <Folder>
      <name>noca</name>
      <Placemark>
        <name>Trail of the Cedars</name>
        <styleUrl>#icon-1899-0288D1-nodesc</styleUrl>
        <Point>
          <coordinates>
            -121.2461854,48.6717656,0
          </coordinates>
        </Point>
      </Placemark>
      <Placemark>
        <name>Thunder Creek Trailhead</name>
        <styleUrl>#icon-1899-0288D1-nodesc</styleUrl>
        <Point>
          <coordinates>
            -121.0928086,48.6851495,0
          </coordinates>
        </Point>
      </Placemark>
    </Folder>
    <Folder>
      <name>grba</name>
      <Placemark>
        <name>Wheeler Peak Summit Trailhead</name>
        <styleUrl>#icon-1899-0288D1-nodesc</styleUrl>
        <Point>
          <coordinates>
            -114.3034487,39.0171988,0
          </coordinates>
        </Point>
      </Placemark>
      <Placemark>
        <name>Glacier Trail</name>
        <styleUrl>#icon-1899-0288D1-nodesc</styleUrl>
        <Point>
          <coordinates>
            -114.3046607,38.9985217,0
          </coordinates>
        </Point>
      </Placemark>
      <Placemark>
        <name>Alpine Lakes Loop Trail</name>
        <styleUrl>#icon-1899-0288D1-nodesc</styleUrl>
        <Point>
          <coordinates>
            -114.3112304,39.0078089,0
          </coordinates>
        </Point>
      </Placemark>
      <Placemark>
        <name>Wheeler Peak Bristlecone Pine Grove</name>
        <styleUrl>#icon-1899-0288D1-nodesc</styleUrl>
        <Point>
          <coordinates>
            -114.3049657,39.0007262,0
          </coordinates>
        </Point>
      </Placemark>
      <Placemark>
        <name>Bristlecone, Alpine Lake and Sky Island Forest Trailhead</name>
        <styleUrl>#icon-1899-0288D1-nodesc</styleUrl>
        <Point>
          <coordinates>
            -114.3071486,39.0099839,0
          </coordinates>
        </Point>
      </Placemark>
      <Placemark>
        <name>Mountain View Nature Trail</name>
        <styleUrl>#icon-1899-0288D1-nodesc</styleUrl>
        <Point>
          <coordinates>
            -114.2200387,39.0059389,0
          </coordinates>
        </Point>
      </Placemark>
    </Folder>
  </Document>
</kml>
